{
  "norad_id": 46076,
  "name": "STARLINK-1552",
  "history": [
    {
      "epoch": "2026-03-28T11:44:45.580416Z",
      "apogee_km": 548.3199466988262,
      "perigee_km": 546.0789078309626,
      "latitude_deg": -2.51306383102182e-05,
      "longitude_deg": 10.125936183214293,
      "height_km": 548.2814908689782,
      "semi_major_axis_km": 6925.336427264894,
      "eccentricity": 0.0001618,
      "inclination_deg": 53.0563,
      "raan_deg": 12.225,
      "arg_perigee_deg": 100.5303,
      "mean_anomaly_deg": 259.5868,
      "mean_motion_rev_day": 15.06403958
    },
    {
      "epoch": "2026-03-29T02:04:35.602752Z",
      "apogee_km": 548.2060249337792,
      "perigee_km": 546.0965821165255,
      "latitude_deg": 1.7612652625176716e-05,
      "longitude_deg": 151.89830633676374,
      "height_km": 548.2740654426009,
      "semi_major_axis_km": 6925.288303525152,
      "eccentricity": 0.0001523,
      "inclination_deg": 53.0564,
      "raan_deg": 9.5443,
      "arg_perigee_deg": 103.4495,
      "mean_anomaly_deg": 256.6664,
      "mean_motion_rev_day": 15.0641966
    },
    {
      "epoch": "2026-03-30T03:33:16.006752Z",
      "apogee_km": 548.3165902357741,
      "perigee_km": 546.256969203685,
      "latitude_deg": -1.8447932980799254e-05,
      "longitude_deg": 123.91559023925024,
      "height_km": 548.2005767197614,
      "semi_major_axis_km": 6925.423779719729,
      "eccentricity": 0.0001487,
      "inclination_deg": 53.054,
      "raan_deg": 4.7763,
      "arg_perigee_deg": 92.0379,
      "mean_anomaly_deg": 268.078,
      "mean_motion_rev_day": 15.06375457
    },
    {
      "epoch": "2026-03-30T11:30:57.758688Z",
      "apogee_km": 548.2393899806566,
      "perigee_km": 546.2736862787951,
      "latitude_deg": 6.391803354843353e-05,
      "longitude_deg": 2.6772146249274322,
      "height_km": 548.2021580787502,
      "semi_major_axis_km": 6925.393538129726,
      "eccentricity": 0.00014192,
      "inclination_deg": 53.0553,
      "raan_deg": 3.2888,
      "arg_perigee_deg": 93.9799,
      "mean_anomaly_deg": 266.1353,
      "mean_motion_rev_day": 15.06385324
    }
  ]
}